STARLINK-4413
1 53207U 22084U   26090.83335647 -.00029727  00000+0 -21457-2 0  9998
2 53207  97.6031 151.8741 0000837 101.2813   9.5090 15.04209883  5633
